2025-08-05 17:26:51,671 - src.stk_interface.stk_manager - INFO - âœ… çº¦æŸå‚æ•°é…ç½®æˆåŠŸ
2025-08-05 17:26:51,671 - src.stk_interface.stk_manager - INFO - âœ… ä¼ æ„Ÿå™¨åˆ›å»ºæˆåŠŸ: Satellite01_Payload
2025-08-05 17:26:51,674 - src.constellation.constellation_manager - INFO - âœ… å«æ˜Ÿåˆ›å»ºæˆåŠŸ: Satellite01 (è½¨é“é¢1, ä½ç½®1)
2025-08-05 17:26:51,725 - src.stk_interface.stk_manager - INFO - ğŸ›°ï¸ åˆ›å»ºå«æ˜Ÿå¯¹è±¡: Satellite02
2025-08-05 17:26:53,761 - src.stk_interface.stk_manager - INFO - âœ… ä¼ æ’­å™¨ç±»å‹è®¾ç½®æˆåŠŸ
2025-08-05 17:26:53,761 - src.stk_interface.stk_manager - INFO - âœ… å‚æ•° semi_axis = 8171.0 éªŒè¯é€šè¿‡
2025-08-05 17:26:53,761 - src.stk_interface.stk_manager - INFO - âœ… å‚æ•° eccentricity = 0.0 éªŒè¯é€šè¿‡
2025-08-05 17:26:53,761 - src.stk_interface.stk_manager - INFO - âœ… å‚æ•° inclination = 51.856 éªŒè¯é€šè¿‡
2025-08-05 17:26:53,762 - src.stk_interface.stk_manager - INFO - âœ… å‚æ•° raan = 0.0 éªŒè¯é€šè¿‡
2025-08-05 17:26:53,762 - src.stk_interface.stk_manager - INFO - âœ… å‚æ•° arg_of_perigee = 0.0 éªŒè¯é€šè¿‡
2025-08-05 17:26:53,762 - src.stk_interface.stk_manager - INFO - âœ… å‚æ•° mean_anomaly = 120.0 éªŒè¯é€šè¿‡
2025-08-05 17:26:53,762 - src.stk_interface.stk_manager - INFO - ğŸ”„ ä½¿ç”¨Kepleriané«˜åº¦æ–¹æ³•...
2025-08-05 17:26:54,102 - src.stk_interface.stk_manager - INFO - âœ… Kepleriané«˜åº¦æ–¹æ³•æˆåŠŸ
2025-08-05 17:26:54,199 - src.stk_interface.stk_manager - INFO - âœ… åœ°é¢è½¨è¿¹é…ç½®æˆåŠŸ
2025-08-05 17:26:54,206 - src.stk_interface.stk_manager - INFO - âœ… å«æ˜Ÿåˆ›å»ºæˆåŠŸ: Satellite02
2025-08-05 17:26:54,316 - src.stk_interface.stk_manager - INFO - ğŸ”­ åˆ›å»ºä¼ æ„Ÿå™¨: Satellite02_Payload
2025-08-05 17:26:55,352 - src.stk_interface.stk_manager - INFO - âœ“ ä¼ æ„Ÿå™¨æ¨¡å¼è®¾ç½®ä¸ºåœ†é”¥
2025-08-05 17:26:55,575 - src.stk_interface.stk_manager - INFO - âœ“ è·å–Patternå¯¹è±¡æˆåŠŸï¼Œç±»å‹: <class 'win32com.client.CDispatch'>
2025-08-05 17:26:55,588 - src.stk_interface.stk_manager - INFO - âœ“ è®¾ç½®å¤–é”¥è§’æˆåŠŸ: 85.0Â°
2025-08-05 17:26:55,602 - src.stk_interface.stk_manager - INFO - âœ“ è®¾ç½®å†…é”¥è§’æˆåŠŸ: 66.1Â°
2025-08-05 17:26:55,633 - src.stk_interface.stk_manager - INFO - âœ“ è®¾ç½®æ—¶é’Ÿè§’çº¦æŸæˆåŠŸ: 0.0Â° - 360.0Â°
2025-08-05 17:26:55,636 - src.stk_interface.stk_manager - INFO - âœ… åœ†é”¥è§†åœºé…ç½®æˆåŠŸ
2025-08-05 17:26:55,688 - src.stk_interface.stk_manager - INFO - âœ… æŒ‡å‘å‚æ•°é…ç½®æˆåŠŸ
2025-08-05 17:26:56,282 - src.stk_interface.stk_manager - INFO - âœ“ è·ç¦»çº¦æŸè®¾ç½®æˆåŠŸ: 0-5000km
2025-08-05 17:26:56,287 - src.stk_interface.stk_manager - INFO - âœ… çº¦æŸå‚æ•°é…ç½®æˆåŠŸ
2025-08-05 17:26:56,287 - src.stk_interface.stk_manager - INFO - âœ… ä¼ æ„Ÿå™¨åˆ›å»ºæˆåŠŸ: Satellite02_Payload
2025-08-05 17:26:56,290 - src.constellation.constellation_manager - INFO - âœ… å«æ˜Ÿåˆ›å»ºæˆåŠŸ: Satellite02 (è½¨é“é¢1, ä½ç½®2)
2025-08-05 17:26:56,338 - src.stk_interface.stk_manager - INFO - ğŸ›°ï¸ åˆ›å»ºå«æ˜Ÿå¯¹è±¡: Satellite03
2025-08-05 17:26:58,362 - src.stk_interface.stk_manager - INFO - âœ… ä¼ æ’­å™¨ç±»å‹è®¾ç½®æˆåŠŸ
2025-08-05 17:26:58,362 - src.stk_interface.stk_manager - INFO - âœ… å‚æ•° semi_axis = 8171.0 éªŒè¯é€šè¿‡
2025-08-05 17:26:58,362 - src.stk_interface.stk_manager - INFO - âœ… å‚æ•° eccentricity = 0.0 éªŒè¯é€šè¿‡
2025-08-05 17:26:58,363 - src.stk_interface.stk_manager - INFO - âœ… å‚æ•° inclination = 51.856 éªŒè¯é€šè¿‡
2025-08-05 17:26:58,363 - src.stk_interface.stk_manager - INFO - âœ… å‚æ•° raan = 0.0 éªŒè¯é€šè¿‡
2025-08-05 17:26:58,363 - src.stk_interface.stk_manager - INFO - âœ… å‚æ•° arg_of_perigee = 0.0 éªŒè¯é€šè¿‡
2025-08-05 17:26:58,363 - src.stk_interface.stk_manager - INFO - âœ… å‚æ•° mean_anomaly = 240.0 éªŒè¯é€šè¿‡
2025-08-05 17:26:58,363 - src.stk_interface.stk_manager - INFO - ğŸ”„ ä½¿ç”¨Kepleriané«˜åº¦æ–¹æ³•...
2025-08-05 17:26:58,679 - src.stk_interface.stk_manager - INFO - âœ… Kepleriané«˜åº¦æ–¹æ³•æˆåŠŸ
2025-08-05 17:26:58,776 - src.stk_interface.stk_manager - INFO - âœ… åœ°é¢è½¨è¿¹é…ç½®æˆåŠŸ
2025-08-05 17:26:58,783 - src.stk_interface.stk_manager - INFO - âœ… å«æ˜Ÿåˆ›å»ºæˆåŠŸ: Satellite03
2025-08-05 17:26:58,892 - src.stk_interface.stk_manager - INFO - ğŸ”­ åˆ›å»ºä¼ æ„Ÿå™¨: Satellite03_Payload
2025-08-05 17:26:59,918 - src.stk_interface.stk_manager - INFO - âœ“ ä¼ æ„Ÿå™¨æ¨¡å¼è®¾ç½®ä¸ºåœ†é”¥
2025-08-05 17:27:00,137 - src.stk_interface.stk_manager - INFO - âœ“ è·å–Patternå¯¹è±¡æˆåŠŸï¼Œç±»å‹: <class 'win32com.client.CDispatch'>
2025-08-05 17:27:00,146 - src.stk_interface.stk_manager - INFO - âœ“ è®¾ç½®å¤–é”¥è§’æˆåŠŸ: 85.0Â°
2025-08-05 17:27:00,161 - src.stk_interface.stk_manager - INFO - âœ“ è®¾ç½®å†…é”¥è§’æˆåŠŸ: 66.1Â°
2025-08-05 17:27:00,185 - src.stk_interface.stk_manager - INFO - âœ“ è®¾ç½®æ—¶é’Ÿè§’çº¦æŸæˆåŠŸ: 0.0Â° - 360.0Â°
2025-08-05 17:27:00,189 - src.stk_interface.stk_manager - INFO - âœ… åœ†é”¥è§†åœºé…ç½®æˆåŠŸ
2025-08-05 17:27:00,240 - src.stk_interface.stk_manager - INFO - âœ… æŒ‡å‘å‚æ•°é…ç½®æˆåŠŸ
2025-08-05 17:27:00,835 - src.stk_interface.stk_manager - INFO - âœ“ è·ç¦»çº¦æŸè®¾ç½®æˆåŠŸ: 0-5000km
2025-08-05 17:27:00,837 - src.stk_interface.stk_manager - INFO - âœ… çº¦æŸå‚æ•°é…ç½®æˆåŠŸ
2025-08-05 17:27:00,837 - src.stk_interface.stk_manager - INFO - âœ… ä¼ æ„Ÿå™¨åˆ›å»ºæˆåŠŸ: Satellite03_Payload
2025-08-05 17:27:00,839 - src.constellation.constellation_manager - INFO - âœ… å«æ˜Ÿåˆ›å»ºæˆåŠŸ: Satellite03 (è½¨é“é¢1, ä½ç½®3)
2025-08-05 17:27:00,894 - src.stk_interface.stk_manager - INFO - ğŸ›°ï¸ åˆ›å»ºå«æ˜Ÿå¯¹è±¡: Satellite04
2025-08-05 17:27:02,923 - src.stk_interface.stk_manager - INFO - âœ… ä¼ æ’­å™¨ç±»å‹è®¾ç½®æˆåŠŸ
2025-08-05 17:27:02,923 - src.stk_interface.stk_manager - INFO - âœ… å‚æ•° semi_axis = 8171.0 éªŒè¯é€šè¿‡
2025-08-05 17:27:02,923 - src.stk_interface.stk_manager - INFO - âœ… å‚æ•° eccentricity = 0.0 éªŒè¯é€šè¿‡
2025-08-05 17:27:02,923 - src.stk_interface.stk_manager - INFO - âœ… å‚æ•° inclination = 51.856 éªŒè¯é€šè¿‡
2025-08-05 17:27:02,923 - src.stk_interface.stk_manager - INFO - âœ… å‚æ•° raan = 120.0 éªŒè¯é€šè¿‡
2025-08-05 17:27:02,924 - src.stk_interface.stk_manager - INFO - âœ… å‚æ•° arg_of_perigee = 0.0 éªŒè¯é€šè¿‡
2025-08-05 17:27:02,924 - src.stk_interface.stk_manager - INFO - âœ… å‚æ•° mean_anomaly = 40.0 éªŒè¯é€šè¿‡
2025-08-05 17:27:02,924 - src.stk_interface.stk_manager - INFO - ğŸ”„ ä½¿ç”¨Kepleriané«˜åº¦æ–¹æ³•...
2025-08-05 17:27:03,254 - src.stk_interface.stk_manager - INFO - âœ… Kepleriané«˜åº¦æ–¹æ³•æˆåŠŸ
2025-08-05 17:27:03,353 - src.stk_interface.stk_manager - INFO - âœ… åœ°é¢è½¨è¿¹é…ç½®æˆåŠŸ
2025-08-05 17:27:03,359 - src.stk_interface.stk_manager - INFO - âœ… å«æ˜Ÿåˆ›å»ºæˆåŠŸ: Satellite04
2025-08-05 17:27:03,470 - src.stk_interface.stk_manager - INFO - ğŸ”­ åˆ›å»ºä¼ æ„Ÿå™¨: Satellite04_Payload
2025-08-05 17:27:04,484 - src.stk_interface.stk_manager - INFO - âœ“ ä¼ æ„Ÿå™¨æ¨¡å¼è®¾ç½®ä¸ºåœ†é”¥
2025-08-05 17:27:04,703 - src.stk_interface.stk_manager - INFO - âœ“ è·å–Patternå¯¹è±¡æˆåŠŸï¼Œç±»å‹: <class 'win32com.client.CDispatch'>
2025-08-05 17:27:04,713 - src.stk_interface.stk_manager - INFO - âœ“ è®¾ç½®å¤–é”¥è§’æˆåŠŸ: 85.0Â°
2025-08-05 17:27:04,725 - src.stk_interface.stk_manager - INFO - âœ“ è®¾ç½®å†…é”¥è§’æˆåŠŸ: 66.1Â°
2025-08-05 17:27:04,754 - src.stk_interface.stk_manager - INFO - âœ“ è®¾ç½®æ—¶é’Ÿè§’çº¦æŸæˆåŠŸ: 0.0Â° - 360.0Â°
2025-08-05 17:27:04,757 - src.stk_interface.stk_manager - INFO - âœ… åœ†é”¥è§†åœºé…ç½®æˆåŠŸ
2025-08-05 17:27:04,807 - src.stk_interface.stk_manager - INFO - âœ… æŒ‡å‘å‚æ•°é…ç½®æˆåŠŸ
2025-08-05 17:27:05,400 - src.stk_interface.stk_manager - INFO - âœ“ è·ç¦»çº¦æŸè®¾ç½®æˆåŠŸ: 0-5000km
2025-08-05 17:27:05,406 - src.stk_interface.stk_manager - INFO - âœ… çº¦æŸå‚æ•°é…ç½®æˆåŠŸ
2025-08-05 17:27:05,406 - src.stk_interface.stk_manager - INFO - âœ… ä¼ æ„Ÿå™¨åˆ›å»ºæˆåŠŸ: Satellite04_Payload
2025-08-05 17:27:05,410 - src.constellation.constellation_manager - INFO - âœ… å«æ˜Ÿåˆ›å»ºæˆåŠŸ: Satellite04 (è½¨é“é¢2, ä½ç½®1)
2025-08-05 17:27:05,475 - src.stk_interface.stk_manager - INFO - ğŸ›°ï¸ åˆ›å»ºå«æ˜Ÿå¯¹è±¡: Satellite05
2025-08-05 17:27:07,512 - src.stk_interface.stk_manager - INFO - âœ… ä¼ æ’­å™¨ç±»å‹è®¾ç½®æˆåŠŸ
2025-08-05 17:27:07,512 - src.stk_interface.stk_manager - INFO - âœ… å‚æ•° semi_axis = 8171.0 éªŒè¯é€šè¿‡
2025-08-05 17:27:07,512 - src.stk_interface.stk_manager - INFO - âœ… å‚æ•° eccentricity = 0.0 éªŒè¯é€šè¿‡
2025-08-05 17:27:07,513 - src.stk_interface.stk_manager - INFO - âœ… å‚æ•° inclination = 51.856 éªŒè¯é€šè¿‡
2025-08-05 17:27:07,513 - src.stk_interface.stk_manager - INFO - âœ… å‚æ•° raan = 120.0 éªŒè¯é€šè¿‡
2025-08-05 17:27:07,513 - src.stk_interface.stk_manager - INFO - âœ… å‚æ•° arg_of_perigee = 0.0 éªŒè¯é€šè¿‡
2025-08-05 17:27:07,513 - src.stk_interface.stk_manager - INFO - âœ… å‚æ•° mean_anomaly = 160.0 éªŒè¯é€šè¿‡
2025-08-05 17:27:07,513 - src.stk_interface.stk_manager - INFO - ğŸ”„ ä½¿ç”¨Kepleriané«˜åº¦æ–¹æ³•...
2025-08-05 17:27:07,831 - src.stk_interface.stk_manager - INFO - âœ… Kepleriané«˜åº¦æ–¹æ³•æˆåŠŸ
2025-08-05 17:27:07,934 - src.stk_interface.stk_manager - INFO - âœ… åœ°é¢è½¨è¿¹é…ç½®æˆåŠŸ
2025-08-05 17:27:07,941 - src.stk_interface.stk_manager - INFO - âœ… å«æ˜Ÿåˆ›å»ºæˆåŠŸ: Satellite05
2025-08-05 17:27:08,053 - src.stk_interface.stk_manager - INFO - ğŸ”­ åˆ›å»ºä¼ æ„Ÿå™¨: Satellite05_Payload
2025-08-05 17:27:09,066 - src.stk_interface.stk_manager - INFO - âœ“ ä¼ æ„Ÿå™¨æ¨¡å¼è®¾ç½®ä¸ºåœ†é”¥
2025-08-05 17:27:09,293 - src.stk_interface.stk_manager - INFO - âœ“ è·å–Patternå¯¹è±¡æˆåŠŸï¼Œç±»å‹: <class 'win32com.client.CDispatch'>
2025-08-05 17:27:09,306 - src.stk_interface.stk_manager - INFO - âœ“ è®¾ç½®å¤–é”¥è§’æˆåŠŸ: 85.0Â°
2025-08-05 17:27:09,319 - src.stk_interface.stk_manager - INFO - âœ“ è®¾ç½®å†…é”¥è§’æˆåŠŸ: 66.1Â°
2025-08-05 17:27:09,349 - src.stk_interface.stk_manager - INFO - âœ“ è®¾ç½®æ—¶é’Ÿè§’çº¦æŸæˆåŠŸ: 0.0Â° - 360.0Â°
2025-08-05 17:27:09,352 - src.stk_interface.stk_manager - INFO - âœ… åœ†é”¥è§†åœºé…ç½®æˆåŠŸ
2025-08-05 17:27:09,401 - src.stk_interface.stk_manager - INFO - âœ… æŒ‡å‘å‚æ•°é…ç½®æˆåŠŸ
2025-08-05 17:27:09,999 - src.stk_interface.stk_manager - INFO - âœ“ è·ç¦»çº¦æŸè®¾ç½®æˆåŠŸ: 0-5000km
